# From MPC106342
C/1995 O1 (Hale-Bopp),e,89.0209,283.2951,130.5390,179.0634,0.0004113,0.99494643,0.0000,03/29.7377/1997,2000,g -2.0,4.0
# From NK 1615
P/1996 R2 (Lagerkvist),e,2.6003,40.0294,333.3122,3.775029,0.1343766,0.31407092,94.3772,01/14.0/2021,2000,g 11.5,4.0
# From MPC 30063
P/1997 B1 (Kobayashi),e,12.3395,328.8834,183.3551,8.569267,0.0392906,0.76012888,342.7595,01/14.0/2021,2000,g 15.0,2.0
# From MPC 75703
P/1998 VS24 (LINEAR),e,5.0254,159.0318,244.6626,4.529294,0.1022488,0.24203600,111.6557,01/14.0/2021,2000,g 13.0,2.0
# From NK 731
P/1999 RO28 (LONEOS),e,7.5669,137.8840,231.2674,3.426753,0.1553746,0.67209272,88.2324,01/14.0/2021,2000,g 20.0,2.0
# From MPC 75704
P/1999 XN120 (Catalina),e,5.0297,285.2962,161.8860,4.179030,0.1153694,0.21030040,151.5429,01/14.0/2021,2000,g 13.5,2.0
# From NK 744
P/2000 R2 (LINEAR),e,11.6848,160.2925,176.5209,3.466211,0.1527290,0.53157953,88.0584,01/14.0/2021,2000,g 18.0,4.0
# From MPC 43019
P/2001 H5 (NEAT),e,8.3671,328.6841,224.8659,6.098084,0.0654507,0.59861415,125.2623,01/14.0/2021,2000,g 12.0,4.0
# From MPC 75704
P/2001 Q6 (NEAT),e,56.9040,22.1361,42.9410,7.951395,0.0439581,0.82284433,309.8427,01/14.0/2021,2000,g 13.5,4.0
# From MPC 47727
P/2002 EJ57 (LINEAR),e,4.9761,330.3276,167.3668,6.472711,0.0598515,0.59268820,56.2977,01/14.0/2021,2000,g 12.5,4.0
# From MPC109588
P/2002 T6 (NEAT-LINEAR),e,10.8338,206.4070,219.6176,7.673270,0.0463696,0.56019253,300.3541,01/14.0/2021,2000,g 10.5,4.0
# From MPC 75007
C/2002 VQ94 (LINEAR),e,70.5757,35.0212,100.1588,185.7232,0.0003894,0.96320561,2.1283,01/14.0/2021,2000,g  9.5,2.0
# From MPC 50354
P/2003 F2 (NEAT),e,11.6046,359.0649,191.9577,6.492378,0.0595797,0.54227968,25.5363,01/14.0/2021,2000,g 16.5,2.0
# From MPC 50139
P/2003 QX29 (NEAT),e,11.3898,264.5847,37.4230,8.031497,0.0433021,0.47299176,287.9453,01/14.0/2021,2000,g  8.5,4.0
# From MPC105235
P/2003 T12 (SOHO),e,11.0173,174.5736,219.7666,2.586137,0.2369883,0.76966133,59.7530,01/14.0/2021,2000,g 17.0,4.0
# From MPC 82312
P/2004 A1 (LONEOS),e,10.5516,124.8469,21.3931,7.956970,0.0439119,0.30934069,263.4136,01/14.0/2021,2000,g  6.5,4.0
# From MPC 54558
P/2004 DO29 (Spacewatch-LINEAR),e,14.5319,147.3775,40.7136,7.283296,0.0501432,0.44127898,297.9392,01/14.0/2021,2000,g 13.5,2.0
# From MPC 54823
P/2004 FY140 (LINEAR),e,2.1348,326.7603,242.4505,4.902048,0.0908108,0.16853003,181.6561,01/14.0/2021,2000,g 12.5,2.0
# From MPC 53304
P/2004 R3 (LINEAR-NEAT),e,12.8243,305.4812,38.4695,4.797247,0.0938028,0.26129086,336.0624,01/14.0/2021,2000,g 14.5,4.0
# From MPC 55521
P/2004 V3 (Siding Spring),e,50.4350,356.1178,322.3113,7.143372,0.0516237,0.44634020,306.2092,01/14.0/2021,2000,g 11.5,4.0
# From MPC 75705
P/2004 V5 (LINEAR-Hill),e,19.3443,47.7735,87.7656,7.976757,0.0437486,0.44353354,254.6358,01/14.0/2021,2000,g  8.0,4.0
# From MPEC 2020-X09
P/2005 CR16,e,9.3937,139.9817,313.1065,6.628061,0.0577596,0.51012195,350.7222,01/14.0/2021,2000,g 12.5,4.0
# From MPC 54164
P/2005 E1 (Tubbiolo),e,4.2637,335.5702,194.1102,7.038112,0.0527861,0.37516245,307.7998,01/14.0/2021,2000,g 10.0,4.0
# From MPC 54823
P/2005 GF8 (LONEOS),e,1.1931,314.8299,285.0090,5.855335,0.0695627,0.51797195,32.8881,01/14.0/2021,2000,g 11.5,4.0
# From MPC 79019
P/2005 J1 (McNaught),e,31.7656,268.8050,338.9596,3.569948,0.1461205,0.56982135,120.4516,01/14.0/2021,2000,g 16.5,4.0
# From MPC 74246
P/2005 L1 (McNaught),e,7.7386,138.2479,149.7057,3.975262,0.1243528,0.20939521,323.6079,01/14.0/2021,2000,g  9.5,4.0
# From MPC 75706
P/2005 S2 (Skiff),e,3.1357,161.1991,229.1525,8.016848,0.0434209,0.19701252,232.9708,01/14.0/2021,2000,g  7.5,4.0
# From MPC 75706
P/2005 SB216 (LONEOS),e,24.0755,1.2261,83.3857,7.128231,0.0517883,0.46340829,265.1420,01/14.0/2021,2000,g 12.0,2.0
# From MPC 55717
P/2005 T2 (Christensen),e,8.2927,260.1576,58.8145,3.845995,0.1306746,0.41639507,36.6708,01/14.0/2021,2000,g 14.5,4.0
# From MPC 73461
P/2005 T3 (Read),e,6.2244,27.7349,6.9633,7.578895,0.0472384,0.17406041,263.3443,01/14.0/2021,2000,g  9.0,4.0
# From MPC 73461
P/2005 T4 (SWAN),e,160.1888,25.6905,41.5947,9.361057,0.0344125,0.92987574,192.2356,01/14.0/2021,2000,g 15.0,4.0
# From MPC 75706
P/2005 T5 (Broughton),e,21.3545,57.0059,304.5332,7.291175,0.0500620,0.55207756,279.2716,01/14.0/2021,2000,g 11.0,4.0
# From MPC 56954
P/2005 W3 (Kowalski),e,16.4187,210.0878,200.6979,6.330777,0.0618755,0.54344935,344.5444,01/14.0/2021,2000,g 12.0,4.0
# From MPC 75706
P/2005 Y2 (McNaught),e,19.0861,94.4985,194.0030,6.387165,0.0610579,0.47071066,5.2177,01/14.0/2021,2000,g  9.0,4.0
# From MPC 56954
P/2006 F4 (Spacewatch),e,12.4071,183.8617,31.1204,3.525829,0.1488717,0.33951920,78.9630,01/14.0/2021,2000,g 15.0,4.0
# From MPC 75707
P/2006 HR30 (Siding Spring),e,31.8295,309.9035,117.2886,7.811288,0.0451461,0.84207991,232.2975,01/14.0/2021,2000,g 11.0,4.0
# From MPC 75707
P/2006 S4 (Christensen),e,39.5343,36.0919,305.1471,6.312430,0.0621454,0.50807752,337.2752,01/14.0/2021,2000,g 11.0,4.0
# From MPC 75707
P/2007 A2 (Christensen),e,26.4877,300.9065,186.7527,6.325464,0.0619535,0.55760444,317.6013,01/14.0/2021,2000,g 13.5,4.0
# From MPEC 2021-A66
P/2007 B1 (Christensen),e,12.3775,77.6743,46.6921,5.818883,0.0702174,0.58088846,359.2632,01/14.0/2021,2000,g 15.0,4.0
# From MPC 75707
P/2007 C2 (Catalina),e,8.6529,275.6011,179.9331,6.993423,0.0532929,0.47023966,258.8196,01/14.0/2021,2000,g 10.0,4.0
# From MPC 84315
C/2007 D1 (LINEAR),e,41.5016,171.1855,340.0843,1515,0.0000167,0.99417069,0.0000,06/09.4038/2007,2000,g  3.5,4.0
# From MPC 82314
P/2007 K2 (Gibbs),e,7.6355,188.6459,347.4629,7.263298,0.0503504,0.68328423,250.3630,01/14.0/2021,2000,g 14.0,4.0
# From MPC 60925
P/2007 Q2 (Gilmore),e,10.2026,172.1599,162.7755,5.654010,0.0733110,0.67020633,3.5210,01/14.0/2021,2000,g 16.0,4.0
# From MPC 75708
P/2007 R4 (Garradd),e,20.2231,87.2220,282.6400,5.929051,0.0682694,0.67005270,337.5512,01/14.0/2021,2000,g 14.5,4.0
# From MPC 73462
P/2007 S1 (Zhao),e,5.9634,141.3771,245.7146,3.813493,0.1323487,0.33960081,276.2876,01/14.0/2021,2000,g 13.0,4.0
# From MPC 61994
P/2007 T2 (Kowalski),e,9.7459,3.3748,359.6361,3.047131,0.1852966,0.78526945,167.7370,01/14.0/2021,2000,g 18.5,4.0
# From MPC 75708
P/2008 CL94 (Lemmon),e,8.3471,33.3292,80.5026,6.161223,0.0644471,0.12029956,343.8514,01/14.0/2021,2000,g  8.0,4.0
# From MPC 75709
P/2008 L2 (Hill),e,25.8578,218.0058,141.2133,6.028672,0.0665843,0.61306730,303.5890,01/14.0/2021,2000,g 12.5,4.0
# From MPC 64114
P/2008 O3 (Boattini),e,32.2543,47.5956,341.0891,8.222783,0.0418000,0.69515454,193.0751,01/14.0/2021,2000,g 13.0,4.0
# From MPC 75709
P/2008 QP20 (LINEAR-Hill),e,7.5221,322.0750,75.5994,3.553073,0.1471628,0.49216563,308.0326,01/14.0/2021,2000,g 15.5,4.0
# From MPC 66204
P/2008 WZ96 (LINEAR),e,7.1114,56.4705,341.8806,3.489872,0.1511784,0.47024698,326.0305,01/14.0/2021,2000,g 13.5,4.0
# From MPC 75710
P/2008 Y3 (McNaught),e,38.7636,262.7925,238.2553,8.046155,0.0431839,0.44550603,190.1324,01/14.0/2021,2000,g  8.5,4.0
# From MPC 75710
P/2009 B1 (Boattini),e,22.2192,297.0915,128.8902,6.736161,0.0563748,0.63468376,247.4658,01/14.0/2021,2000,g 13.0,4.0
# From MPC 66466
C/2009 G1 (STEREO),e,108.7477,120.4326,175.3960,428.8759,0.0001110,0.99735306,0.0000,04/15.3254/2009,2000,g  9.0,4.0
# From MPC 75710
P/2009 O3 (Hill),e,16.2665,183.7128,154.3951,7.770283,0.0455039,0.68759703,193.6775,01/14.0/2021,2000,g 12.5,4.0
# From MPC 98557
P/2009 Q1 (Hill),e,14.5055,173.9593,157.1256,5.520339,0.0759898,0.49481048,322.3738,01/14.0/2021,2000,g 11.5,4.0
# From MPC 68902
P/2009 Q5 (McNaught),e,40.9766,160.2659,209.0202,7.437623,0.0485907,0.60876106,201.6980,01/14.0/2021,2000,g 10.0,4.0
# From MPC112389
P/2009 T2 (La Sagra),e,27.5500,215.7972,216.4127,7.724139,0.0459123,0.76513661,185.2892,01/14.0/2021,2000,g 14.0,4.0
# From MPC 75711
P/2009 U4 (McNaught),e,10.0806,55.3553,259.8387,5.083983,0.0859801,0.67612735,358.4436,01/14.0/2021,2000,g 14.0,4.0
# From MPC105235
P/2009 WX51 (Catalina),e,9.5955,31.6829,118.0736,3.080557,0.1822889,0.74030104,10.6888,01/14.0/2021,2000,g 19.0,2.0
# From MPC 74247
P/2009 Y2 (Kowalski),e,29.9298,262.0242,172.1644,6.549304,0.0588046,0.63589481,233.5072,01/14.0/2021,2000,g 13.0,4.0
# From MPC 75711
P/2010 A3 (Hill),e,14.8574,64.0328,41.9870,6.076088,0.0658064,0.73332639,260.0066,01/14.0/2021,2000,g 14.0,4.0
# From MPC 72851
P/2010 A5 (LINEAR),e,5.7978,277.6632,307.0893,5.083101,0.0860025,0.66499752,336.2209,01/14.0/2021,2000,g 13.0,4.0
# From MPEC 2021-A76
P/2010 B2 (WISE),e,8.9310,0.8487,155.9198,3.110191,0.1796898,0.47992161,7.1198,01/14.0/2021,2000,g 17.0,4.0
# From MPC 75008
P/2010 C1 (Scotti),e,9.1281,141.8861,3.7550,7.103023,0.0520642,0.25864320,212.2952,01/14.0/2021,2000,g  9.5,4.0
# From MPC 75008
P/2010 D2 (WISE),e,57.0847,319.8919,120.0816,6.715963,0.0566294,0.45088149,225.6885,01/14.0/2021,2000,g 16.0,4.0
# From MPC 75009
P/2010 E2 (Jarnac),e,15.4034,177.8247,8.3691,8.638246,0.0388209,0.72015609,152.9133,01/14.0/2021,2000,g 14.0,4.0
# From MPC 72851
P/2010 H2 (Vales),e,14.2732,64.2041,128.1771,3.834200,0.1312780,0.19570957,160.5507,01/14.0/2021,2000,g  6.0,4.0
# From MPC 70361
P/2010 H3 (SOHO),e,23.0877,77.1014,26.1387,3.059032,0.1842163,0.98548439,0.0000,02/07.9649/2021,2000,g 20.0,2.0
# From MPC 73463
P/2010 H4 (Scotti),e,2.3188,44.7454,179.5570,6.590126,0.0582591,0.26746219,224.9446,01/14.0/2021,2000,g 10.5,4.0
# From MPC 74637
P/2010 H5 (Scotti),e,14.0661,24.8082,175.2637,7.159479,0.0514496,0.15355352,202.3628,01/14.0/2021,2000,g 13.0,2.0
# From MPC 98558
P/2010 J3 (McMillan),e,13.2887,106.4110,157.5888,8.970833,0.0366822,0.72717914,139.0250,01/14.0/2021,2000,g 11.0,4.0
# From MPC 84315
P/2010 JC81 (WISE),e,38.7265,30.8437,12.4392,8.110780,0.0426688,0.77676780,151.8036,01/14.0/2021,2000,g  9.0,4.0
# From MPC 74248
P/2010 T2 (PANSTARRS),e,7.9098,59.0041,353.6105,5.517880,0.0760406,0.32148646,271.3309,01/14.0/2021,2000,g 11.5,4.0
# From MPC 98558
P/2010 TO20 (LINEAR-Grauer),e,2.4791,43.2967,266.7484,5.829549,0.0700248,0.05468300,312.7823,01/14.0/2021,2000,g  9.0,4.0
# From MPC 82316
